<?xml version="1.0" encoding="UTF-8"?>
<ndm xmlns:xsi="http://www.w3.org/2001/XMLSchema-instance" xsi:noNamespaceSchemaLocation="https://sanaregistry.org/r/ndmxml_unqualified/ndmxml-2.0.0-master-2.0.xsd">
<omm id="CCSDS_OMM_VERS" version="2.0">
<header><CREATION_DATE/><ORIGINATOR/></header><body><segment><metadata><OBJECT_NAME>KUIPER-00018</OBJECT_NAME><OBJECT_ID>2025-088K</OBJECT_ID><CENTER_NAME>EARTH</CENTER_NAME><REF_FRAME>TEME</REF_FRAME><TIME_SYSTEM>UTC</TIME_SYSTEM><MEAN_ELEMENT_THEORY>SGP4</MEAN_ELEMENT_THEORY></metadata><data><meanElements><EPOCH>2025-12-29T06:55:45.085728</EPOCH><MEAN_MOTION>14.79941922</MEAN_MOTION><ECCENTRICITY>.00128973</ECCENTRICITY><INCLINATION>51.9048</INCLINATION><RA_OF_ASC_NODE>51.8629</RA_OF_ASC_NODE><ARG_OF_PERICENTER>215.7348</ARG_OF_PERICENTER><MEAN_ANOMALY>144.2752</MEAN_ANOMALY></meanElements><tleParameters><EPHEMERIS_TYPE>0</EPHEMERIS_TYPE><CLASSIFICATION_TYPE>U</CLASSIFICATION_TYPE><NORAD_CAT_ID>63733</NORAD_CAT_ID><ELEMENT_SET_NO>999</ELEMENT_SET_NO><REV_AT_EPOCH>3706</REV_AT_EPOCH><BSTAR>.69712926E-3</BSTAR><MEAN_MOTION_DOT>.5103E-4</MEAN_MOTION_DOT><MEAN_MOTION_DDOT>0</MEAN_MOTION_DDOT></tleParameters></data></segment></body></omm>
<omm id="CCSDS_OMM_VERS" version="2.0">
<header><CREATION_DATE/><ORIGINATOR/></header><body><segment><metadata><OBJECT_NAME>KUIPER-00019</OBJECT_NAME><OBJECT_ID>2025-088L</OBJECT_ID><CENTER_NAME>EARTH</CENTER_NAME><REF_FRAME>TEME</REF_FRAME><TIME_SYSTEM>UTC</TIME_SYSTEM><MEAN_ELEMENT_THEORY>SGP4</MEAN_ELEMENT_THEORY></metadata><data><meanElements><EPOCH>2025-12-29T06:57:28.226592</EPOCH><MEAN_MOTION>14.79955123</MEAN_MOTION><ECCENTRICITY>.00085543</ECCENTRICITY><INCLINATION>51.9000</INCLINATION><RA_OF_ASC_NODE>50.4037</RA_OF_ASC_NODE><ARG_OF_PERICENTER>224.9783</ARG_OF_PERICENTER><MEAN_ANOMALY>135.0487</MEAN_ANOMALY></meanElements><tleParameters><EPHEMERIS_TYPE>0</EPHEMERIS_TYPE><CLASSIFICATION_TYPE>U</CLASSIFICATION_TYPE><NORAD_CAT_ID>63734</NORAD_CAT_ID><ELEMENT_SET_NO>999</ELEMENT_SET_NO><REV_AT_EPOCH>3708</REV_AT_EPOCH><BSTAR>.62563697E-3</BSTAR><MEAN_MOTION_DOT>.4555E-4</MEAN_MOTION_DOT><MEAN_MOTION_DDOT>0</MEAN_MOTION_DDOT></tleParameters></data></segment></body></omm>
<omm id="CCSDS_OMM_VERS" version="2.0">
<header><CREATION_DATE/><ORIGINATOR/></header><body><segment><metadata><OBJECT_NAME>KUIPER-00020</OBJECT_NAME><OBJECT_ID>2025-088M</OBJECT_ID><CENTER_NAME>EARTH</CENTER_NAME><REF_FRAME>TEME</REF_FRAME><TIME_SYSTEM>UTC</TIME_SYSTEM><MEAN_ELEMENT_THEORY>SGP4</MEAN_ELEMENT_THEORY></metadata><data><meanElements><EPOCH>2025-12-28T21:08:33.649728</EPOCH><MEAN_MOTION>14.79904450</MEAN_MOTION><ECCENTRICITY>.0008341</ECCENTRICITY><INCLINATION>51.9020</INCLINATION><RA_OF_ASC_NODE>56.1966</RA_OF_ASC_NODE><ARG_OF_PERICENTER>208.4503</ARG_OF_PERICENTER><MEAN_ANOMALY>151.6005</MEAN_ANOMALY></meanElements><tleParameters><EPHEMERIS_TYPE>0</EPHEMERIS_TYPE><CLASSIFICATION_TYPE>U</CLASSIFICATION_TYPE><NORAD_CAT_ID>63735</NORAD_CAT_ID><ELEMENT_SET_NO>999</ELEMENT_SET_NO><REV_AT_EPOCH>3717</REV_AT_EPOCH><BSTAR>-.41535031E-3</BSTAR><MEAN_MOTION_DOT>-.3388E-4</MEAN_MOTION_DOT><MEAN_MOTION_DDOT>0</MEAN_MOTION_DDOT></tleParameters></data></segment></body></omm>
<omm id="CCSDS_OMM_VERS" version="2.0">
<header><CREATION_DATE/><ORIGINATOR/></header><body><segment><metadata><OBJECT_NAME>KUIPER-00021</OBJECT_NAME><OBJECT_ID>2025-088N</OBJECT_ID><CENTER_NAME>EARTH</CENTER_NAME><REF_FRAME>TEME</REF_FRAME><TIME_SYSTEM>UTC</TIME_SYSTEM><MEAN_ELEMENT_THEORY>SGP4</MEAN_ELEMENT_THEORY></metadata><data><meanElements><EPOCH>2025-12-28T21:06:09.554400</EPOCH><MEAN_MOTION>14.79901697</MEAN_MOTION><ECCENTRICITY>.00063276</ECCENTRICITY><INCLINATION>51.9014</INCLINATION><RA_OF_ASC_NODE>57.2021</RA_OF_ASC_NODE><ARG_OF_PERICENTER>201.0216</ARG_OF_PERICENTER><MEAN_ANOMALY>159.0487</MEAN_ANOMALY></meanElements><tleParameters><EPHEMERIS_TYPE>0</EPHEMERIS_TYPE><CLASSIFICATION_TYPE>U</CLASSIFICATION_TYPE><NORAD_CAT_ID>63736</NORAD_CAT_ID><ELEMENT_SET_NO>999</ELEMENT_SET_NO><REV_AT_EPOCH>3699</REV_AT_EPOCH><BSTAR>.51054453E-3</BSTAR><MEAN_MOTION_DOT>.367E-4</MEAN_MOTION_DOT><MEAN_MOTION_DDOT>0</MEAN_MOTION_DDOT></tleParameters></data></segment></body></omm>
<omm id="CCSDS_OMM_VERS" version="2.0">
<header><CREATION_DATE/><ORIGINATOR/></header><body><segment><metadata><OBJECT_NAME>KUIPER-00023</OBJECT_NAME><OBJECT_ID>2025-088P</OBJECT_ID><CENTER_NAME>EARTH</CENTER_NAME><REF_FRAME>TEME</REF_FRAME><TIME_SYSTEM>UTC</TIME_SYSTEM><MEAN_ELEMENT_THEORY>SGP4</MEAN_ELEMENT_THEORY></metadata><data><meanElements><EPOCH>2025-12-29T03:33:52.900416</EPOCH><MEAN_MOTION>14.79853971</MEAN_MOTION><ECCENTRICITY>.00109394</ECCENTRICITY><INCLINATION>51.9011</INCLINATION><RA_OF_ASC_NODE>57.4791</RA_OF_ASC_NODE><ARG_OF_PERICENTER>221.4240</ARG_OF_PERICENTER><MEAN_ANOMALY>138.5894</MEAN_ANOMALY></meanElements><tleParameters><EPHEMERIS_TYPE>0</EPHEMERIS_TYPE><CLASSIFICATION_TYPE>U</CLASSIFICATION_TYPE><NORAD_CAT_ID>63737</NORAD_CAT_ID><ELEMENT_SET_NO>999</ELEMENT_SET_NO><REV_AT_EPOCH>3731</REV_AT_EPOCH><BSTAR>.11032989E-2</BSTAR><MEAN_MOTION_DOT>.819E-4</MEAN_MOTION_DOT><MEAN_MOTION_DDOT>0</MEAN_MOTION_DDOT></tleParameters></data></segment></body></omm>
<omm id="CCSDS_OMM_VERS" version="2.0">
<header><CREATION_DATE/><ORIGINATOR/></header><body><segment><metadata><OBJECT_NAME>KUIPER-00024</OBJECT_NAME><OBJECT_ID>2025-088Q</OBJECT_ID><CENTER_NAME>EARTH</CENTER_NAME><REF_FRAME>TEME</REF_FRAME><TIME_SYSTEM>UTC</TIME_SYSTEM><MEAN_ELEMENT_THEORY>SGP4</MEAN_ELEMENT_THEORY></metadata><data><meanElements><EPOCH>2025-12-29T07:07:33.804192</EPOCH><MEAN_MOTION>14.79903194</MEAN_MOTION><ECCENTRICITY>.00008229</ECCENTRICITY><INCLINATION>51.9051</INCLINATION><RA_OF_ASC_NODE>44.3694</RA_OF_ASC_NODE><ARG_OF_PERICENTER>120.2997</ARG_OF_PERICENTER><MEAN_ANOMALY>239.8047</MEAN_ANOMALY></meanElements><tleParameters><EPHEMERIS_TYPE>0</EPHEMERIS_TYPE><CLASSIFICATION_TYPE>U</CLASSIFICATION_TYPE><NORAD_CAT_ID>63738</NORAD_CAT_ID><ELEMENT_SET_NO>999</ELEMENT_SET_NO><REV_AT_EPOCH>3763</REV_AT_EPOCH><BSTAR>-.89500687E-3</BSTAR><MEAN_MOTION_DOT>-.7032E-4</MEAN_MOTION_DOT><MEAN_MOTION_DDOT>0</MEAN_MOTION_DDOT></tleParameters></data></segment></body></omm>
<omm id="CCSDS_OMM_VERS" version="2.0">
<header><CREATION_DATE/><ORIGINATOR/></header><body><segment><metadata><OBJECT_NAME>KUIPER-00025</OBJECT_NAME><OBJECT_ID>2025-088R</OBJECT_ID><CENTER_NAME>EARTH</CENTER_NAME><REF_FRAME>TEME</REF_FRAME><TIME_SYSTEM>UTC</TIME_SYSTEM><MEAN_ELEMENT_THEORY>SGP4</MEAN_ELEMENT_THEORY></metadata><data><meanElements><EPOCH>2025-12-28T21:10:00.572448</EPOCH><MEAN_MOTION>14.80030488</MEAN_MOTION><ECCENTRICITY>.00010073</ECCENTRICITY><INCLINATION>51.9036</INCLINATION><RA_OF_ASC_NODE>54.7172</RA_OF_ASC_NODE><ARG_OF_PERICENTER>28.3087</ARG_OF_PERICENTER><MEAN_ANOMALY>331.7930</MEAN_ANOMALY></meanElements><tleParameters><EPHEMERIS_TYPE>0</EPHEMERIS_TYPE><CLASSIFICATION_TYPE>U</CLASSIFICATION_TYPE><NORAD_CAT_ID>63739</NORAD_CAT_ID><ELEMENT_SET_NO>999</ELEMENT_SET_NO><REV_AT_EPOCH>3731</REV_AT_EPOCH><BSTAR>.64878449E-3</BSTAR><MEAN_MOTION_DOT>.4739E-4</MEAN_MOTION_DOT><MEAN_MOTION_DDOT>0</MEAN_MOTION_DDOT></tleParameters></data></segment></body></omm>
<omm id="CCSDS_OMM_VERS" version="2.0">
<header><CREATION_DATE/><ORIGINATOR/></header><body><segment><metadata><OBJECT_NAME>KUIPER-00027</OBJECT_NAME><OBJECT_ID>2025-088S</OBJECT_ID><CENTER_NAME>EARTH</CENTER_NAME><REF_FRAME>TEME</REF_FRAME><TIME_SYSTEM>UTC</TIME_SYSTEM><MEAN_ELEMENT_THEORY>SGP4</MEAN_ELEMENT_THEORY></metadata><data><meanElements><EPOCH>2025-12-28T13:14:00.712896</EPOCH><MEAN_MOTION>14.79949222</MEAN_MOTION><ECCENTRICITY>.0003527</ECCENTRICITY><INCLINATION>51.9009</INCLINATION><RA_OF_ASC_NODE>50.1500</RA_OF_ASC_NODE><ARG_OF_PERICENTER>293.3117</ARG_OF_PERICENTER><MEAN_ANOMALY>66.7474</MEAN_ANOMALY></meanElements><tleParameters><EPHEMERIS_TYPE>0</EPHEMERIS_TYPE><CLASSIFICATION_TYPE>U</CLASSIFICATION_TYPE><NORAD_CAT_ID>63740</NORAD_CAT_ID><ELEMENT_SET_NO>999</ELEMENT_SET_NO><REV_AT_EPOCH>3708</REV_AT_EPOCH><BSTAR>.78377E-3</BSTAR><MEAN_MOTION_DOT>.5761E-4</MEAN_MOTION_DOT><MEAN_MOTION_DDOT>0</MEAN_MOTION_DDOT></tleParameters></data></segment></body></omm>
<omm id="CCSDS_OMM_VERS" version="2.0">
<header><CREATION_DATE/><ORIGINATOR/></header><body><segment><metadata><OBJECT_NAME>KUIPER-00028</OBJECT_NAME><OBJECT_ID>2025-088T</OBJECT_ID><CENTER_NAME>EARTH</CENTER_NAME><REF_FRAME>TEME</REF_FRAME><TIME_SYSTEM>UTC</TIME_SYSTEM><MEAN_ELEMENT_THEORY>SGP4</MEAN_ELEMENT_THEORY></metadata><data><meanElements><EPOCH>2025-12-29T07:29:01.117536</EPOCH><MEAN_MOTION>14.79759344</MEAN_MOTION><ECCENTRICITY>.00039547</ECCENTRICITY><INCLINATION>51.9007</INCLINATION><RA_OF_ASC_NODE>44.7657</RA_OF_ASC_NODE><ARG_OF_PERICENTER>310.7139</ARG_OF_PERICENTER><MEAN_ANOMALY>49.3480</MEAN_ANOMALY></meanElements><tleParameters><EPHEMERIS_TYPE>0</EPHEMERIS_TYPE><CLASSIFICATION_TYPE>U</CLASSIFICATION_TYPE><NORAD_CAT_ID>63741</NORAD_CAT_ID><ELEMENT_SET_NO>999</ELEMENT_SET_NO><REV_AT_EPOCH>3763</REV_AT_EPOCH><BSTAR>.6200089E-3</BSTAR><MEAN_MOTION_DOT>.4489E-4</MEAN_MOTION_DOT><MEAN_MOTION_DDOT>0</MEAN_MOTION_DDOT></tleParameters></data></segment></body></omm>

</ndm>
